[{"OBJECT_NAME":"STARLINK-5315","OBJECT_ID":"2023-010AS","EPOCH":"2026-03-09T22:36:43.285824","MEAN_MOTION":14.98324735,"ECCENTRICITY":0.00026267,"INCLINATION":70.0021,"RA_OF_ASC_NODE":3.6806,"ARG_OF_PERICENTER":265.4453,"MEAN_ANOMALY":94.6406,"EPHEMERIS_TYPE":0,"CLASSIFICATION_TYPE":"U","NORAD_CAT_ID":55309,"ELEMENT_SET_NO":999,"REV_AT_EPOCH":17381,"BSTAR":-4.8305114e-5,"MEAN_MOTION_DOT":-6.69e-6,"MEAN_MOTION_DDOT":0},{"OBJECT_NAME":"FENGYUN 1C DEB","OBJECT_ID":"1999-025DDB","EPOCH":"2026-03-09T10:56:14.251200","MEAN_MOTION":14.6302195,"ECCENTRICITY":0.01614875,"INCLINATION":98.5209,"RA_OF_ASC_NODE":163.6485,"ARG_OF_PERICENTER":230.9829,"MEAN_ANOMALY":127.6902,"EPHEMERIS_TYPE":0,"CLASSIFICATION_TYPE":"U","NORAD_CAT_ID":33618,"ELEMENT_SET_NO":999,"REV_AT_EPOCH":98051,"BSTAR":0.0010717723,"MEAN_MOTION_DOT":6.58e-5,"MEAN_MOTION_DDOT":0}]
